BEIJING 1               
1 28890U 05043A   22204.35005255  .00000275  00000+0  64780-4 0  9996
2 28890  98.1223 326.1019 0016353  64.5881 295.7015 14.61471134892387
HJ-1A                   
1 33320U 08041A   22204.44039923  .00000422  00000+0  65165-4 0  9992
2 33320  97.6751 235.8079 0022368 113.1338 247.2234 14.77876799747707
HJ-1B                   
1 33321U 08041B   22204.45671582  .00000950  00000+0  13778-3 0  9995
2 33321  97.6926 239.4613 0035343 131.3647 229.0618 14.77794676747705
YAOGAN 4                
1 33446U 08061A   22204.54453801  .00000476  00000+0  73778-4 0  9997
2 33446  97.8176 143.5777 0016789  22.4014 337.7926 14.77415782734926
DEIMOS-1                
1 35681U 09041A   22204.48999999  .00000349  00000+0  62781-4 0  9996
2 35681  97.7112  53.7110 0002865  98.1306 262.0223 14.72078833697076
UK-DMC 2                
1 35683U 09041C   22204.46332409  .00000522  00000+0  91623-4 0  9993
2 35683  97.7004  15.5937 0001671  98.4393 261.7014 14.71447512696801
RISAT 1                 
1 38248U 12017A   22204.53210455  .00003134  00000+0  18545-3 0  9997
2 38248  97.5518 215.5094 0005363 122.9862 237.1885 15.12163736564278
DMC3-FM1                
1 40715U 15032A   22204.65269070  .00000469  00000+0  65417-4 0  9998
2 40715  97.8430  90.7532 0007066  49.8780 310.3062 14.82153735378654
DMC3-FM2                
1 40716U 15032B   22204.60787222  .00000477  00000+0  66485-4 0  9993
2 40716  97.8476  91.3700 0009033  51.0121 309.1892 14.82145630378651
DMC3-FM3                
1 40717U 15032C   22204.63029526  .00000485  00000+0  67458-4 0  9993
2 40717  97.8508  92.3187 0011000  47.8934 312.3200 14.82173661378654
